#cP2006  5 30  0  0  0.00000000      96 ORBIT IGb00 HLM  IGS
## 1377 172800.00000000   900.00000000 53885 0.0000000000000
+   29   G01G02G03G04G05G06G07G08G09G10G11G13G14G15G16G17G18
+        G19G20G21G22G23G24G25G26G27G28G29G30  0  0  0  0  0
+          0  0  0  0  0  0  0  0  0  0  0  0  0  0  0  0  0
+          0  0  0  0  0  0  0  0  0  0  0  0  0  0  0  0  0
+          0  0  0  0  0  0  0  0  0  0  0  0  0  0  0  0  0
++         3  3  3  3  3  3  3  3  3  3  3  3  3  3  3  3  3
++         4  3  3  4  3  4  4  3  3  3  3  3  0  0  0  0  0
++         0  0  0  0  0  0  0  0  0  0  0  0  0  0  0  0  0
++         0  0  0  0  0  0  0  0  0  0  0  0  0  0  0  0  0
++         0  0  0  0  0  0  0  0  0  0  0  0  0  0  0  0  0
%c G  cc GPS ccc cccc cccc cccc cccc ccccc ccccc ccccc ccccc
%c cc cc ccc ccc cccc cccc cccc cccc ccccc ccccc ccccc ccccc
%f  1.2500000  1.025000000  0.00000000000  0.000000000000000
%f  0.0000000  0.000000000  0.00000000000  0.000000000000000
%i    0    0    0    0      0      0      0      0         0
%i    0    0    0    0      0      0      0      0         0
/* FINAL ORBIT COMBINATION FROM WEIGHTED AVERAGE OF:        
/* cod emr esa gfz jpl mit ngs sio                          
/* REFERENCED TO IGS TIME (IGST) AND TO WEIGHTED MEAN POLE: 
/* CLK ANT Z-OFFSET (M): II/IIA 1.023; IIR 0.000            
*  2006  5 30 12 45  0.00000000
PG01 -15682.156294  21401.968829   -114.688521     56.161688  8  4  6 140       
PG02  12894.294901 -12804.269921  19039.759570      0.979032 10  7  8 169       
PG03 -10313.868785  24094.924875  -3271.718887    102.740320  7  4  5 129       
PG04  22882.242247  -6710.319851  12016.451525    242.336320 11  8 11 183       
PG05 -13011.374452 -23244.330501  -1071.066397     63.346327  6  6  8 111       
PG06 -14019.665555  -7538.643364  21460.973853    545.789902 10  9  9 139       
PG07 -18997.754384  14139.030899  12498.903084    539.697726  8  5  6 125       
PG08  26358.667860   -475.756266  -4842.802565    -67.354143 10 10  5 140       
PG09  -9565.255120 -14663.611715 -20602.135243     22.304898  7  8  9 119       
PG10   1914.284784 -21133.433653  15677.813980     84.210225  4  5  4 137       
PG11  12118.606473  14229.101339 -19016.385823    330.303026 10 10  8 163       
PG13  12762.014739   6993.699215  22126.834647     65.639344 11  9  6 147       
PG14 -19250.746373  11744.081519 -13926.236964    -12.996720 11  9  8 148       
PG15 -26318.258338    -91.939339  -5109.514051 999999.999999  9  7  9           
PG16  -6331.492072  17455.832318  19038.401861     46.168428  8  8  8 107       
PG17  19426.765895 -10547.343394 -14660.869839     95.952488  9  9  9 129       
PG18 -17486.101739 -12929.373299 -15355.784082   -237.392972 11  9 12 140       
PG19  -3986.899954  21901.954681 -14339.930549     -8.162161 11 11 10 150       
PG20  13269.086228  22916.799946   2167.772930    -26.123366 10  7  9 134       
PG21 -25955.059361  -5624.926253   4020.482469     32.207705 12  8  9 139       
PG22 -15594.621117   1818.691740 -21272.723838    101.363732 13  9 13 141       
PG23   4655.651425  17220.473067  19529.975732    140.495005 10  8  9 145       
PG24  26555.095672   1122.361649   2840.286662      9.708386  9 12 11 150       
PG25 -18454.697020  11599.122445  15670.111375    170.901678  8  7 10 132       
PG26   5596.489298 -22475.125579 -12827.752857   -130.973788  8  6  6 134       
PG27  25660.639613   4668.195769   6465.866420     51.137029  9  8  8 140       
PG28  16819.410896   2552.923014 -20193.560337     26.305368 10 11  9 149       
PG29   8512.926972 -23376.262130  -8656.978796    612.695979  7  6  6 130       
PG30 -17471.942080 -17275.258538   9958.516654    267.422071  5  6  7 112       
*  2006  5 30 13  0  0.00000000
PG01 -15719.865184  21134.050698  -3019.006387     56.163324  8  5  7 141       
PG02  15040.374460 -12574.161800  17563.503825      0.981720 11  6  8 166       
PG03 -10739.835957  24105.222941   -480.285010    102.744392  7  4  5 129       
PG04  24101.022151  -6423.673480   9578.938811    242.344433 11  8 12 178       
PG05 -12614.303756 -23191.001019  -3851.675915     63.390053  7  7  9 127       
PG06 -12798.149185  -9627.525524  21381.224147    545.803082 10  9  9 136       
PG07 -18487.101167  12703.286542  14665.511453    539.699436  8  5  6 123       
PG08  26715.665195   -263.759766  -2020.931771    -67.355185 10 10  5 140       
PG09  -7276.707887 -14732.544255 -21468.546354     22.307662  7  8  9 127       
PG10   2928.665155 -19487.345467  17558.017984     84.211948  4  5  4 130       
PG11   9912.682153  14619.768222 -19954.928858    330.305152 10 10  8 165       
PG13  11364.770479   9118.830670  22120.078338     65.642055 11  9  4 148       
PG14 -18438.805292  10217.495367 -16059.972131    -12.996103 10  9  8 148       
PG15 -26694.668262   -363.389100  -2326.408150 999999.999999  9  7  9           
PG16  -7465.500689  15526.859412  20273.896836     46.171124  8  8  9 117       
PG17  18633.477552  -8928.243330 -16642.086432     95.955006  8 10  8 131       
PG18 -18030.517283 -14487.770118 -13226.900356   -237.394201 11  9 12 137       
PG19  -5047.431884  23025.729011 -12080.822659     -8.160154 11 11 10 149       
PG20  13083.789370  23126.780455   -677.596230    -26.122823 10  7  9 148       
PG21 -25338.478732  -5834.960498   6722.849367     32.209384 11  8 10 137       
PG22 -16568.186995   -408.049389 -20605.881622    101.367385 13  9 13 145       
PG23   3401.057935  18999.389410  18078.812964    140.494116 10  7  9 143       
PG24  26671.332033   1368.081036      6.908360      9.710618  9 12 11 157       
PG25 -20070.391087  11510.426543  13564.928131    170.977020  8  8 10 140       
PG26   6450.714821 -23451.033655 -10310.967366   -130.984530  8  6  7 120       
PG27  24855.360590   4900.666496   9113.904652     51.139380  9  8  8 129       
PG28  17773.914963   4638.597167 -19017.118757     26.304810 10 11  9 149       
PG29   9130.384627 -24013.109874  -5897.891701    612.701071  7  6  7 127       
PG30 -17750.420258 -18300.301203   7384.241821    267.433030  5  6  7 123       
*  2006  5 30 13 15  0.00000000
PG01 -15606.450570  20585.892399  -5871.059100     56.163507  9  6  7 137       
PG02  17008.467991 -12445.953927  15776.720569      0.984273 11  6  8 166       
PG03 -11039.917512  23843.656395   2319.555619    102.747996  8  3  5 111       
PG04  25049.163542  -6198.329524   6979.460180    242.352400 11  8 12 186       
PG05 -12034.851610 -22907.293264  -6566.890646     63.433674  7  8  9 120       
PG06 -11691.631314 -11747.806610  20939.873271    545.816752 10  9  9 141       
PG07 -17949.552529  11040.202729  16586.433536    539.701063  8  5  6 130       
PG08  26765.423321    -75.209718    834.816567    -67.356261 10 10  5 138       
PG09  -4918.070822 -14929.590506 -21984.628638     22.309892  7  8  9 124       
PG10   4128.025026 -17728.437476  19130.340248     84.212047  4  5  4 131       
PG11   7638.793546  15118.396707 -20553.526750    330.307210  9 10  7 163       
PG13  10102.032380  11299.641093  21729.603275     65.644683 11  9  4 147       
PG14 -17602.910400   8449.339748 -17915.485403    -12.995397 10 10  8 149       
PG15 -26771.452040   -600.511788    495.669976    620.737198  9  7  9 176       
PG16  -8759.838496  13558.132471  21162.309083     46.173306  9  8  9 115       
PG17  17825.593686  -7087.968730 -18335.963306     95.956897  7 10  8 125       
PG18 -18532.934065 -15792.439485 -10872.525203   -237.395822 10  8 11 127       
PG19  -5905.773082  23974.663160  -9612.092209     -8.158671 12 12  9 140       
PG20  12740.095780  23073.367638  -3511.335686    -26.122254 10  8  9 164       
PG21 -24437.960233  -6072.539566   9313.279638     32.211967 11  8 10 138       
PG22 -17607.472277  -2497.138585 -19579.784049    101.371188 13  8 13 138       
PG23   2329.204181  20681.346958  16312.513243    140.493354 10  6  9 140       
PG24  26481.658799   1601.306036  -2826.561588      9.713863  8 12 10 155       
PG25 -21444.665992  11475.134943  11233.015764    171.051975  9  8 10 144       
PG26   7105.244886 -24216.303149  -7613.888079   -130.995102  8  6  7 113       
PG27  23780.491920   5196.736695  11611.371721     51.141053  9  8  8 127       
PG28  18756.266004   6535.959398 -17508.951121     26.304037 10 11  9 139       
PG29   9558.971171 -24398.661172  -3034.935731    612.705761  6  7  7 122       
PG30 -17915.993096 -19058.923766   4682.593018    267.444772  5  6  7 113       
EOF
